QIANFAN-105             
1 66047U 25233Q   25318.61752932  .00000556  00000+0  23849-3 0  9996
2 66047  88.9960  65.2684 0016530 125.0783 235.1962 14.23418916  4031
QIANFAN-106             
1 66048U 25233R   25318.68756381  .00001169  00000+0  50793-3 0  9995
2 66048  88.9959  65.2605 0016310 124.4392 235.8344 14.23456271  4046
QIANFAN-107             
1 66049U 25233S   25318.54608479  .00001200  00000+0  52364-3 0  9997
2 66049  88.9960  65.2761 0017411 124.6521 235.6316 14.23243507  4022
QIANFAN-108             
1 66050U 25233T   25318.61725911  .00000802  00000+0  34967-3 0  9994
2 66050  88.9959  65.2681 0017146 124.6082 235.6729 14.22990360  4034
